STARLINK-30433          
1 57878U 23144Q   26067.98024060 -.00001221  00000+0 -35815-4 0  9992
2 57878  43.0017 288.8031 0002409 266.9439  93.1137 15.26751910137536
FLOCK 4G-29             
1 62642U 25009AK  26068.81464037  .00011147  00000+0  41831-3 0  9994
2 62642  97.4058 151.3683 0001366 288.0502  72.0588 15.27382318 63721
